NUSAT-49 (KLARA DAN VO*)
1 60500U 24149AJ  25047.70441339  .00016210  00000+0  66645-3 0  9999
2 60500  97.4198 126.8768 0004352 184.6807 175.4390 15.24237422 27951
FLOCK 4BE-11            
1 60501U 24149AK  25047.93715110  .00019733  00000+0  79460-3 0  9998
2 60501  97.4153 127.0536 0005254 194.2886 165.8204 15.24890889 27998
FLOCK 4BE-33            
1 60502U 24149AL  25048.16869454  .00016511  00000+0  68309-3 0  9997
2 60502  97.4162 127.2344 0005367 196.6636 163.4426 15.24017419 28027
FLOCK 4BE-10            
1 60503U 24149AM  25048.15999155  .00017296  00000+0  71160-3 0  9999
2 60503  97.4216 127.3812 0003866 189.7420 170.3743 15.24202244 28026
YAM-7                   
1 60504U 24149AN  25048.16858409  .00012621  00000+0  54151-3 0  9995
2 60504  97.4217 127.1926 0003794 192.6316 167.4826 15.22851559 28014
FLOCK 4BE-24            
1 60505U 24149AP  25047.63542002  .00018128  00000+0  72557-3 0  9994
2 60505  97.4151 126.8449 0005177 206.0856 154.0122 15.25111586 27959
LUR-1                   
1 60506U 24149AQ  25047.88129740  .00008989  00000+0  39636-3 0  9997
2 60506  97.4197 126.7673 0004125 203.0315 157.0737 15.22013332 27960
TANAGER-1               
1 60507U 24149AR  25048.06377205 -.00000110  00000+0 -45722-6 0  9996
2 60507  97.4218 130.0317 0011301 227.1952 132.8347 15.43765372 28191
EAGLEEYE                
1 60508U 24149AS  25047.78900259  .00026399  00000+0  95691-3 0  9998
2 60508  97.4175 127.4441 0004439 203.7302 156.3733 15.28329735 28007
FLOCK 4BE-29            
1 60509U 24149AT  25048.20006835  .00038132  00000+0  14949-2 0  9998
2 60509  97.4223 127.6511 0003236 212.6439 147.4600 15.25654854 28044
2024-149AU              
1 60510U 24149AU  25047.71002220  .00016584  00000+0  66844-3 0  9998
2 60510  97.4167 126.9303 0004516 208.8345 151.2644 15.24899895 27965
FLOCK 4BE-2             
1 60511U 24149AV  25048.16651452  .00023482  00000+0  91334-3 0  9993
2 60511  97.4232 127.7079 0003411 208.5236 151.5816 15.26022466 28045
FLOCK 4BE-13            
1 60512U 24149AW  25048.20712975  .00022166  00000+0  87678-3 0  9991
2 60512  97.4146 127.4404 0004923 202.9172 157.1847 15.25467333 28046
FLOCK 4BE-27            
1 60513U 24149AX  25047.64502835  .00016636  00000+0  69660-3 0  9997
2 60513  97.4236 126.8792 0004491 218.7423 141.3492 15.23612794 27944
FLOCK 4BE-9             
1 60514U 24149AY  25047.76489466  .00015813  00000+0  63930-3 0  9995
2 60514  97.4215 127.1270 0003723 214.7611 145.3384 15.24810634 27970
FLOCK 4BE-8             
1 60515U 24149AZ  25047.78489791  .00015336  00000+0  62510-3 0  9992
2 60515  97.4168 126.9736 0005257 212.6318 147.4596 15.24537005 27973
FLOCK 4BE-6             
1 60516U 24149BA  25047.79122819  .00015353  00000+0  62891-3 0  9990
2 60516  97.4222 127.1091 0004336 215.9609 144.1337 15.24372445 27970
FLOCK 4BE-14            
1 60517U 24149BB  25047.93355628  .00016629  00000+0  67023-3 0  9992
2 60517  97.4156 127.2310 0005943 213.9540 146.1318 15.24893056 28001
FLOCK 4BE-1             
1 60518U 24149BC  25047.77801664  .00015093  00000+0  59833-3 0  9995
2 60518  97.4209 127.2504 0004749 218.6669 141.4230 15.25475452 27987
FLOCK 4BE-28            
1 60519U 24149BD  25047.77051986  .00020112  00000+0  78603-3 0  9994
2 60519  97.4165 127.1752 0005733 221.7084 138.3717 15.25884685 27980
IPERDRONE.0             
1 60520U 24149BE  25048.18883335  .00026203  00000+0  94369-3 0  9997
2 60520  97.4195 128.0192 0005937 202.2687 157.8296 15.28535434 28079
2024-149BF              
1 60521U 24149BF  25048.13879785  .00028438  00000+0  99671-3 0  9990
2 60521  97.4212 128.1296 0005566 207.0119 153.0833 15.29411701 28073
CONNECTA IOT-2          
1 60522U 24149BG  25048.21421231  .00012269  00000+0  51624-3 0  9990
2 60522  97.4236 127.4791 0005944 217.1677 142.9150 15.23512243 28035
PTD-R (TYVAK-0127)      
1 60523U 24149BH  25048.21386173  .00042190  00000+0  13770-2 0  9991
2 60523  97.4161 128.3686 0006624 207.6059 152.4831 15.31629505 28109
CONNECTA IOT-4          
1 60524U 24149BJ  25047.88892605  .00021596  00000+0  88745-3 0  9998
2 60524  97.4205 127.0601 0007642 218.1738 141.8958 15.24176296 27987
ORESAT0.5               
1 60525U 24149BK  25048.16568327  .00021029  00000+0  80776-3 0  9999
2 60525  97.4139 127.6377 0007415 208.7472 151.3359 15.26443129 28052
DEIMOS                  
1 60526U 24149BL  25047.71873397  .00018467  00000+0  71547-3 0  9994
2 60526  97.4201 127.3127 0007369 215.7992 144.2753 15.26183594 27983
CUAVA-2                 
1 60527U 24149BM  25047.77471241  .00008986  00000+0  37825-3 0  9999
2 60527  97.4166 126.9786 0007837 206.4456 153.6382 15.23571522 27972
ERNST                   
1 60528U 24149BN  25047.78907344  .00015572  00000+0  63708-3 0  9997
2 60528  97.4224 127.1040 0007425 217.9114 142.1601 15.24395432 27977
GAINDESAT-1A            
1 60529U 24149BP  25047.73306343  .00038658  00000+0  12144-2 0  9992
2 60529  97.4206 128.2407 0007018 212.6896 147.3912 15.32873571 28049
