OBJECT_NAME,OBJECT_ID,EPOCH,MEAN_MOTION,ECCENTRICITY,INCLINATION,RA_OF_ASC_NODE,ARG_OF_PERICENTER,MEAN_ANOMALY,EPHEMERIS_TYPE,CLASSIFICATION_TYPE,NORAD_CAT_ID,ELEMENT_SET_NO,REV_AT_EPOCH,BSTAR,MEAN_MOTION_DOT,MEAN_MOTION_DDOT
NUSAT-49 (KLARA DAN VON NEUMANN),2024-149AJ,2025-02-16T16:54:21.316896,15.24237422,.0004352,97.4198,126.8768,184.6807,175.4390,0,U,60500,999,2795,.66645E-3,.1621E-3,0
FLOCK 4BE-11,2024-149AK,2025-02-16T22:29:29.855040,15.24890889,.0005254,97.4153,127.0536,194.2886,165.8204,0,U,60501,999,2799,.7946E-3,.19733E-3,0
FLOCK 4BE-33,2024-149AL,2025-02-17T04:02:55.208256,15.24017419,.0005367,97.4162,127.2344,196.6636,163.4426,0,U,60502,999,2802,.68309E-3,.16511E-3,0
FLOCK 4BE-10,2024-149AM,2025-02-17T03:50:23.269920,15.24202244,.0003866,97.4216,127.3812,189.7420,170.3743,0,U,60503,999,2802,.7116E-3,.17296E-3,0
YAM-7,2024-149AN,2025-02-17T04:02:45.665376,15.22851559,.0003794,97.4217,127.1926,192.6316,167.4826,0,U,60504,999,2801,.54151E-3,.12621E-3,0
FLOCK 4BE-24,2024-149AP,2025-02-16T15:15:00.289728,15.25111586,.0005177,97.4151,126.8449,206.0856,154.0122,0,U,60505,999,2795,.72557E-3,.18128E-3,0
LUR-1,2024-149AQ,2025-02-16T21:09:04.095360,15.22013332,.0004125,97.4197,126.7673,203.0315,157.0737,0,U,60506,999,2796,.39636E-3,.8989E-4,0
TANAGER-1,2024-149AR,2025-02-17T01:31:49.905120,15.43765372,.0011301,97.4218,130.0317,227.1952,132.8347,0,U,60507,999,2819,-.45722E-6,-.11E-5,0
EAGLEEYE,2024-149AS,2025-02-16T18:56:09.823776,15.28329735,.0004439,97.4175,127.4441,203.7302,156.3733,0,U,60508,999,2800,.95691E-3,.26399E-3,0
FLOCK 4BE-29,2024-149AT,2025-02-17T04:48:05.905440,15.25654854,.0003236,97.4223,127.6511,212.6439,147.4600,0,U,60509,999,2804,.14949E-2,.38132E-3,0
2024-149AU,2024-149AU,2025-02-16T17:02:25.918080,15.24899895,.0004516,97.4167,126.9303,208.8345,151.2644,0,U,60510,999,2796,.66844E-3,.16584E-3,0
FLOCK 4BE-2,2024-149AV,2025-02-17T03:59:46.854528,15.26022466,.0003411,97.4232,127.7079,208.5236,151.5816,0,U,60511,999,2804,.91334E-3,.23482E-3,0
FLOCK 4BE-13,2024-149AW,2025-02-17T04:58:16.010400,15.25467333,.0004923,97.4146,127.4404,202.9172,157.1847,0,U,60512,999,2804,.87678E-3,.22166E-3,0
FLOCK 4BE-27,2024-149AX,2025-02-16T15:28:50.449440,15.23612794,.0004491,97.4236,126.8792,218.7423,141.3492,0,U,60513,999,2794,.6966E-3,.16636E-3,0
FLOCK 4BE-9,2024-149AY,2025-02-16T18:21:26.898624,15.24810634,.0003723,97.4215,127.1270,214.7611,145.3384,0,U,60514,999,2797,.6393E-3,.15813E-3,0
FLOCK 4BE-8,2024-149AZ,2025-02-16T18:50:15.179424,15.24537005,.0005257,97.4168,126.9736,212.6318,147.4596,0,U,60515,999,2797,.6251E-3,.15336E-3,0
FLOCK 4BE-6,2024-149BA,2025-02-16T18:59:22.115616,15.24372445,.0004336,97.4222,127.1091,215.9609,144.1337,0,U,60516,999,2797,.62891E-3,.15353E-3,0
FLOCK 4BE-14,2024-149BB,2025-02-16T22:24:19.262592,15.24893056,.0005943,97.4156,127.2310,213.9540,146.1318,0,U,60517,999,2800,.67023E-3,.16629E-3,0
FLOCK 4BE-1,2024-149BC,2025-02-16T18:40:20.637696,15.25475452,.0004749,97.4209,127.2504,218.6669,141.4230,0,U,60518,999,2798,.59833E-3,.15093E-3,0
FLOCK 4BE-28,2024-149BD,2025-02-16T18:29:32.915904,15.25884685,.0005733,97.4165,127.1752,221.7084,138.3717,0,U,60519,999,2798,.78603E-3,.20112E-3,0
IPERDRONE.0,2024-149BE,2025-02-17T04:31:55.201440,15.28535434,.0005937,97.4195,128.0192,202.2687,157.8296,0,U,60520,999,2807,.94369E-3,.26203E-3,0
2024-149BF,2024-149BF,2025-02-17T03:19:52.134240,15.29411701,.0005566,97.4212,128.1296,207.0119,153.0833,0,U,60521,999,2807,.99671E-3,.28438E-3,0
CONNECTA IOT-2,2024-149BG,2025-02-17T05:08:27.943584,15.23512243,.0005944,97.4236,127.4791,217.1677,142.9150,0,U,60522,999,2803,.51624E-3,.12269E-3,0
PTD-R (TYVAK-0127),2024-149BH,2025-02-17T05:07:57.653472,15.31629505,.0006624,97.4161,128.3686,207.6059,152.4831,0,U,60523,999,2810,.1377E-2,.4219E-3,0
CONNECTA IOT-4,2024-149BJ,2025-02-16T21:20:03.210720,15.24176296,.0007642,97.4205,127.0601,218.1738,141.8958,0,U,60524,999,2798,.88745E-3,.21596E-3,0
ORESAT0.5,2024-149BK,2025-02-17T03:58:35.034528,15.26443129,.0007415,97.4139,127.6377,208.7472,151.3359,0,U,60525,999,2805,.80776E-3,.21029E-3,0
DEIMOS,2024-149BL,2025-02-16T17:14:58.615008,15.26183594,.0007369,97.4201,127.3127,215.7992,144.2753,0,U,60526,999,2798,.71547E-3,.18467E-3,0
CUAVA-2,2024-149BM,2025-02-16T18:35:35.152224,15.23571522,.0007837,97.4166,126.9786,206.4456,153.6382,0,U,60527,999,2797,.37825E-3,.8986E-4,0
ERNST,2024-149BN,2025-02-16T18:56:15.945216,15.24395432,.0007425,97.4224,127.1040,217.9114,142.1601,0,U,60528,999,2797,.63708E-3,.15572E-3,0
GAINDESAT-1A,2024-149BP,2025-02-16T17:35:36.680352,15.32873571,.0007018,97.4206,128.2407,212.6896,147.3912,0,U,60529,999,2804,.12144E-2,.38658E-3,0
